[{"OBJECT_NAME":"ONEWEB-0012","OBJECT_ID":"2019-010A","EPOCH":"2025-11-11T07:03:11.500704","MEAN_MOTION":13.16594021,"ECCENTRICITY":0.00016434,"INCLINATION":87.8998,"RA_OF_ASC_NODE":272.1893,"ARG_OF_PERICENTER":92.8853,"MEAN_ANOMALY":267.2466,"EPHEMERIS_TYPE":0,"CLASSIFICATION_TYPE":"U","NORAD_CAT_ID":44057,"ELEMENT_SET_NO":999,"REV_AT_EPOCH":32289,"BSTAR":-0.00054083199,"MEAN_MOTION_DOT":-1.94e-6,"MEAN_MOTION_DDOT":0},{"OBJECT_NAME":"ONEWEB-0010","OBJECT_ID":"2019-010B","EPOCH":"2025-11-11T05:50:13.884000","MEAN_MOTION":13.16588741,"ECCENTRICITY":0.00022424,"INCLINATION":87.9003,"RA_OF_ASC_NODE":272.1863,"ARG_OF_PERICENTER":83.4918,"MEAN_ANOMALY":276.6468,"EPHEMERIS_TYPE":0,"CLASSIFICATION_TYPE":"U","NORAD_CAT_ID":44058,"ELEMENT_SET_NO":999,"REV_AT_EPOCH":32293,"BSTAR":0.00016699561,"MEAN_MOTION_DOT":7.7e-7,"MEAN_MOTION_DDOT":0},{"OBJECT_NAME":"ONEWEB-0008","OBJECT_ID":"2019-010C","EPOCH":"2025-11-11T06:26:44.154240","MEAN_MOTION":13.16592836,"ECCENTRICITY":0.00018124,"INCLINATION":87.9007,"RA_OF_ASC_NODE":272.1779,"ARG_OF_PERICENTER":76.7037,"MEAN_ANOMALY":283.4296,"EPHEMERIS_TYPE":0,"CLASSIFICATION_TYPE":"U","NORAD_CAT_ID":44059,"ELEMENT_SET_NO":999,"REV_AT_EPOCH":32305,"BSTAR":0.00020840331,"MEAN_MOTION_DOT":9.3e-7,"MEAN_MOTION_DDOT":0},{"OBJECT_NAME":"ONEWEB-0007","OBJECT_ID":"2019-010D","EPOCH":"2025-11-11T04:57:32.615136","MEAN_MOTION":13.15549438,"ECCENTRICITY":0.0002024,"INCLINATION":87.8957,"RA_OF_ASC_NODE":302.727,"ARG_OF_PERICENTER":95.5873,"MEAN_ANOMALY":264.5489,"EPHEMERIS_TYPE":0,"CLASSIFICATION_TYPE":"U","NORAD_CAT_ID":44060,"ELEMENT_SET_NO":999,"REV_AT_EPOCH":32271,"BSTAR":0.00014599452,"MEAN_MOTION_DOT":6.8e-7,"MEAN_MOTION_DDOT":0},{"OBJECT_NAME":"ONEWEB-0006","OBJECT_ID":"2019-010E","EPOCH":"2025-11-11T05:03:15.153984","MEAN_MOTION":13.15549845,"ECCENTRICITY":0.00021106,"INCLINATION":87.8969,"RA_OF_ASC_NODE":302.6703,"ARG_OF_PERICENTER":91.8498,"MEAN_ANOMALY":268.2874,"EPHEMERIS_TYPE":0,"CLASSIFICATION_TYPE":"U","NORAD_CAT_ID":44061,"ELEMENT_SET_NO":999,"REV_AT_EPOCH":32276,"BSTAR":0.00018290169,"MEAN_MOTION_DOT":8.2e-7,"MEAN_MOTION_DDOT":0},{"OBJECT_NAME":"ONEWEB-0011","OBJECT_ID":"2019-010F","EPOCH":"2025-11-11T00:38:32.610048","MEAN_MOTION":13.15549931,"ECCENTRICITY":0.00019491,"INCLINATION":87.8954,"RA_OF_ASC_NODE":302.7174,"ARG_OF_PERICENTER":83.2021,"MEAN_ANOMALY":276.9331,"EPHEMERIS_TYPE":0,"CLASSIFICATION_TYPE":"U","NORAD_CAT_ID":44062,"ELEMENT_SET_NO":999,"REV_AT_EPOCH":32273,"BSTAR":0.00029414777,"MEAN_MOTION_DOT":1.24e-6,"MEAN_MOTION_DDOT":0},{"OBJECT_NAME":"ONEWEB-0013","OBJECT_ID":"2020-008A","EPOCH":"2025-11-11T07:42:30.403872","MEAN_MOTION":13.09433571,"ECCENTRICITY":0.00012313,"INCLINATION":87.8476,"RA_OF_ASC_NODE":96.8225,"ARG_OF_PERICENTER":138.3897,"MEAN_ANOMALY":221.7324,"EPHEMERIS_TYPE":0,"CLASSIFICATION_TYPE":"U","NORAD_CAT_ID":45131,"ELEMENT_SET_NO":999,"REV_AT_EPOCH":27755,"BSTAR":0.0016487664,"MEAN_MOTION_DOT":5.8e-6,"MEAN_MOTION_DDOT":0},{"OBJECT_NAME":"ONEWEB-0017","OBJECT_ID":"2020-008B","EPOCH":"2025-11-11T07:18:27.249120","MEAN_MOTION":13.10375483,"ECCENTRICITY":0.00017757,"INCLINATION":87.8793,"RA_OF_ASC_NODE":79.7077,"ARG_OF_PERICENTER":96.4856,"MEAN_ANOMALY":263.6474,"EPHEMERIS_TYPE":0,"CLASSIFICATION_TYPE":"U","NORAD_CAT_ID":45132,"ELEMENT_SET_NO":999,"REV_AT_EPOCH":27941,"BSTAR":-0.0013612704,"MEAN_MOTION_DOT":-4.63e-6,"MEAN_MOTION_DDOT":0},{"OBJECT_NAME":"ONEWEB-0020","OBJECT_ID":"2020-008C","EPOCH":"2025-11-11T06:35:26.855232","MEAN_MOTION":13.10371678,"ECCENTRICITY":0.00014817,"INCLINATION":87.8799,"RA_OF_ASC_NODE":79.6988,"ARG_OF_PERICENTER":93.245,"MEAN_ANOMALY":266.8847,"EPHEMERIS_TYPE":0,"CLASSIFICATION_TYPE":"U","NORAD_CAT_ID":45133,"ELEMENT_SET_NO":999,"REV_AT_EPOCH":27980,"BSTAR":0.0012819339,"MEAN_MOTION_DOT":4.6e-6,"MEAN_MOTION_DDOT":0},{"OBJECT_NAME":"ONEWEB-0021","OBJECT_ID":"2020-008D","EPOCH":"2025-11-11T06:56:57.250464","MEAN_MOTION":13.10372227,"ECCENTRICITY":0.00015981,"INCLINATION":87.8789,"RA_OF_ASC_NODE":79.7275,"ARG_OF_PERICENTER":103.74,"MEAN_ANOMALY":256.3906,"EPHEMERIS_TYPE":0,"CLASSIFICATION_TYPE":"U","NORAD_CAT_ID":45134,"ELEMENT_SET_NO":999,"REV_AT_EPOCH":28011,"BSTAR":-0.00078138183,"MEAN_MOTION_DOT":-2.6e-6,"MEAN_MOTION_DDOT":0},{"OBJECT_NAME":"ONEWEB-0023","OBJECT_ID":"2020-008F","EPOCH":"2025-11-11T07:12:28.600992","MEAN_MOTION":13.10373453,"ECCENTRICITY":0.00013098,"INCLINATION":87.879,"RA_OF_ASC_NODE":79.7075,"ARG_OF_PERICENTER":98.7063,"MEAN_ANOMALY":261.4213,"EPHEMERIS_TYPE":0,"CLASSIFICATION_TYPE":"U","NORAD_CAT_ID":45136,"ELEMENT_SET_NO":999,"REV_AT_EPOCH":27954,"BSTAR":-0.0016822352,"MEAN_MOTION_DOT":-5.75e-6,"MEAN_MOTION_DDOT":0},{"OBJECT_NAME":"ONEWEB-0024","OBJECT_ID":"2020-008G","EPOCH":"2025-11-11T06:33:03.896928","MEAN_MOTION":13.10371734,"ECCENTRICITY":0.00016229,"INCLINATION":87.8812,"RA_OF_ASC_NODE":79.6757,"ARG_OF_PERICENTER":100.4432,"MEAN_ANOMALY":259.6879,"EPHEMERIS_TYPE":0,"CLASSIFICATION_TYPE":"U","NORAD_CAT_ID":45137,"ELEMENT_SET_NO":999,"REV_AT_EPOCH":27970,"BSTAR":0.0017983522,"MEAN_MOTION_DOT":6.4e-6,"MEAN_MOTION_DDOT":0},{"OBJECT_NAME":"ONEWEB-0025","OBJECT_ID":"2020-008H","EPOCH":"2025-11-11T06:58:07.948992","MEAN_MOTION":13.1037055,"ECCENTRICITY":0.00014074,"INCLINATION":87.8798,"RA_OF_ASC_NODE":79.679,"ARG_OF_PERICENTER":112.0539,"MEAN_ANOMALY":248.0738,"EPHEMERIS_TYPE":0,"CLASSIFICATION_TYPE":"U","NORAD_CAT_ID":45138,"ELEMENT_SET_NO":999,"REV_AT_EPOCH":28003,"BSTAR":-0.00082038298,"MEAN_MOTION_DOT":-2.74e-6,"MEAN_MOTION_DDOT":0},{"OBJECT_NAME":"ONEWEB-0026","OBJECT_ID":"2020-008J","EPOCH":"2025-11-11T06:07:09.524640","MEAN_MOTION":13.11414968,"ECCENTRICITY":0.00017256,"INCLINATION":87.8862,"RA_OF_ASC_NODE":64.4617,"ARG_OF_PERICENTER":96.6484,"MEAN_ANOMALY":263.484,"EPHEMERIS_TYPE":0,"CLASSIFICATION_TYPE":"U","NORAD_CAT_ID":45139,"ELEMENT_SET_NO":999,"REV_AT_EPOCH":28254,"BSTAR":-0.0011912191,"MEAN_MOTION_DOT":-4.09e-6,"MEAN_MOTION_DDOT":0},{"OBJECT_NAME":"ONEWEB-0028","OBJECT_ID":"2020-008K","EPOCH":"2025-11-11T06:54:47.167488","MEAN_MOTION":13.1141972,"ECCENTRICITY":0.00013997,"INCLINATION":87.8856,"RA_OF_ASC_NODE":64.4719,"ARG_OF_PERICENTER":125.9408,"MEAN_ANOMALY":234.185,"EPHEMERIS_TYPE":0,"CLASSIFICATION_TYPE":"U","NORAD_CAT_ID":45140,"ELEMENT_SET_NO":999,"REV_AT_EPOCH":28006,"BSTAR":0.0012223996,"MEAN_MOTION_DOT":4.46e-6,"MEAN_MOTION_DDOT":0},{"OBJECT_NAME":"ONEWEB-0032","OBJECT_ID":"2020-008L","EPOCH":"2025-11-11T07:20:50.057088","MEAN_MOTION":13.10376068,"ECCENTRICITY":0.00014392,"INCLINATION":87.8795,"RA_OF_ASC_NODE":79.7075,"ARG_OF_PERICENTER":105.651,"MEAN_ANOMALY":254.4776,"EPHEMERIS_TYPE":0,"CLASSIFICATION_TYPE":"U","NORAD_CAT_ID":45141,"ELEMENT_SET_NO":999,"REV_AT_EPOCH":27976,"BSTAR":-0.0014508465,"MEAN_MOTION_DOT":-4.94e-6,"MEAN_MOTION_DDOT":0},{"OBJECT_NAME":"ONEWEB-0033","OBJECT_ID":"2020-008M","EPOCH":"2025-11-11T06:45:05.552064","MEAN_MOTION":13.10292998,"ECCENTRICITY":0.00023131,"INCLINATION":87.8789,"RA_OF_ASC_NODE":79.7245,"ARG_OF_PERICENTER":89.9638,"MEAN_ANOMALY":270.1754,"EPHEMERIS_TYPE":0,"CLASSIFICATION_TYPE":"U","NORAD_CAT_ID":45142,"ELEMENT_SET_NO":999,"REV_AT_EPOCH":27967,"BSTAR":-0.03358968,"MEAN_MOTION_DOT":-0.00011684,"MEAN_MOTION_DDOT":0}]
