ONEWEB-0012             
1 44057U 19010A   25315.29388311 -.00000194  00000+0 -54083-3 0  9990
2 44057  87.8998 272.1893 0001643  92.8853 267.2466 13.16594021322891
ONEWEB-0010             
1 44058U 19010B   25315.24321625  .00000077  00000+0  16700-3 0  9993
2 44058  87.9003 272.1863 0002242  83.4918 276.6468 13.16588741322934
ONEWEB-0008             
1 44059U 19010C   25315.26856660  .00000093  00000+0  20840-3 0  9996
2 44059  87.9007 272.1779 0001812  76.7037 283.4296 13.16592836323053
ONEWEB-0007             
1 44060U 19010D   25315.20662749  .00000068  00000+0  14599-3 0  9991
2 44060  87.8957 302.7270 0002024  95.5873 264.5489 13.15549438322712
ONEWEB-0006             
1 44061U 19010E   25315.21059206  .00000082  00000+0  18290-3 0  9999
2 44061  87.8969 302.6703 0002110  91.8498 268.2874 13.15549845322760
ONEWEB-0011             
1 44062U 19010F   25315.02676632  .00000124  00000+0  29415-3 0  9995
2 44062  87.8954 302.7174 0001949  83.2021 276.9331 13.15549931322731
ONEWEB-0013             
1 45131U 20008A   25315.32118523  .00000580  00000+0  16488-2 0  9996
2 45131  87.8476  96.8225 0001231 138.3897 221.7324 13.09433571277557
ONEWEB-0017             
1 45132U 20008B   25315.30448205 -.00000463  00000+0 -13613-2 0  9997
2 45132  87.8793  79.7077 0001775  96.4856 263.6474 13.10375483279414
ONEWEB-0020             
1 45133U 20008C   25315.27461638  .00000460  00000+0  12819-2 0  9991
2 45133  87.8799  79.6988 0001481  93.2450 266.8847 13.10371678279804
ONEWEB-0021             
1 45134U 20008D   25315.28955151 -.00000260  00000+0 -78138-3 0  9998
2 45134  87.8789  79.7275 0001598 103.7400 256.3906 13.10372227280112
ONEWEB-0023             
1 45136U 20008F   25315.30033103 -.00000575  00000+0 -16822-2 0  9997
2 45136  87.8790  79.7075 0001309  98.7063 261.4213 13.10373453279547
ONEWEB-0024             
1 45137U 20008G   25315.27296177  .00000640  00000+0  17984-2 0  9997
2 45137  87.8812  79.6757 0001622 100.4432 259.6879 13.10371734279703
ONEWEB-0025             
1 45138U 20008H   25315.29036978 -.00000274  00000+0 -82038-3 0  9999
2 45138  87.8798  79.6790 0001407 112.0539 248.0738 13.10370550280031
ONEWEB-0026             
1 45139U 20008J   25315.25497135 -.00000409  00000+0 -11912-2 0  9994
2 45139  87.8862  64.4617 0001725  96.6484 263.4840 13.11414968282549
ONEWEB-0028             
1 45140U 20008K   25315.28804592  .00000446  00000+0  12224-2 0  9994
2 45140  87.8856  64.4719 0001399 125.9408 234.1850 13.11419720280068
ONEWEB-0032             
1 45141U 20008L   25315.30613492 -.00000494  00000+0 -14508-2 0  9997
2 45141  87.8795  79.7075 0001439 105.6510 254.4776 13.10376068279762
ONEWEB-0033             
1 45142U 20008M   25315.28131426 -.00011684  00000+0 -33590-1 0  9991
2 45142  87.8789  79.7245 0002313  89.9638 270.1754 13.10292998279672
